NORAD_CAT_ID,OBJECT_NAME,OBJECT_TYPE,EPOCH,MEAN_MOTION,ECCENTRICITY,INCLINATION,RA_OF_ASC_NODE,ARG_OF_PERICENTER,MEAN_ANOMALY,BSTAR,MEAN_MOTION_DOT,MEAN_MOTION_DDOT,TLE_LINE0,TLE_LINE1,TLE_LINE2,SEMIMAJOR_AXIS,PERIOD,APOGEE,PERIGEE,DECAYED
54773.0,STARLINK-5453,PAYLOAD,2023-06-09 23:20:57,15.0883566,9.95e-05,53.2153,229.8584,80.2927,279.8178,5.6548e-05,6.12e-06,0.0,0 STARLINK-5453,1 54773U 22175R   23160.97288717  .00000612  00000-0  56548-4 0  9995,2 54773  53.2153 229.8584 0000995  80.2927 279.8178 15.08835660 26233,6917.894,95.438,540.447,539.07,0.0
54773.0,STARLINK-5453,PAYLOAD,2023-06-10 13:39:25,15.08837833,0.0001087,53.2153,227.1815,108.8936,251.2174,-1.7822e-05,-5.71e-06,0.0,0 STARLINK-5453,1 54773U 22175R   23161.56904920 -.00000571  00000-0 -17822-4 0  9990,2 54773  53.2153 227.1815 0001087 108.8936 251.2174 15.08837833 28484,6917.887,95.438,540.504,539.0,0.0
54773.0,STARLINK-5453,PAYLOAD,2023-06-10 21:36:21,15.08838315,8.65e-05,53.2158,225.6936,104.3235,255.7853,-5.6497e-06,-3.78e-06,0.0,0 STARLINK-5453,1 54773U 22175R   23161.90024872 -.00000378  00000-0 -56497-5 0  9994,2 54773  53.2158 225.6936 0000865 104.3235 255.7853 15.08838315 28537,6917.886,95.438,540.349,539.152,0.0
54773.0,STARLINK-5453,PAYLOAD,2023-06-10 23:11:45,15.08820487,0.0001022,53.2155,225.3963,82.9897,277.1211,0.00027472,4.085e-05,0.0,0 STARLINK-5453,1 54773U 22175R   23161.96649403  .00004085  00000-0  27472-3 0  9999,2 54773  53.2155 225.3963 0001022  82.9897 277.1211 15.08820487 26380,6917.94,95.439,540.512,539.098,0.0
54773.0,STARLINK-5453,PAYLOAD,2023-06-11 10:19:26,15.08843086,7.78e-05,53.2148,223.3124,100.0645,260.0434,1.8978e-05,1.4e-07,0.0,0 STARLINK-5453,1 54773U 22175R   23162.43016606  .00000014  00000-0  18978-4 0  9995,2 54773  53.2148 223.3124 0000778 100.0645 260.0434 15.08843086 26455,6917.871,95.437,540.274,539.198,0.0
54773.0,STARLINK-5453,PAYLOAD,2023-06-11 21:27:08,15.08846643,8.49e-05,53.2154,221.2327,89.5113,270.5976,2.7937e-05,1.57e-06,0.0,0 STARLINK-5453,1 54773U 22175R   23162.89384314  .00000157  00000-0  27937-4 0  9992,2 54773  53.2154 221.2327 0000849  89.5113 270.5976 15.08846643 28680,6917.86,95.437,540.312,539.138,0.0
54773.0,STARLINK-5453,PAYLOAD,2023-06-12 10:10:13,15.08843576,8.44e-05,53.2155,218.8549,81.1699,278.9388,0.00012994,1.781e-05,0.0,0 STARLINK-5453,1 54773U 22175R   23163.42376304  .00001781  00000-0  12994-3 0  9992,2 54773  53.2155 218.8549 0000844  81.1699 278.9388 15.08843576 28761,6917.869,95.437,540.318,539.151,0.0
54773.0,STARLINK-5453,PAYLOAD,2023-06-12 21:17:55,15.08842174,8.36e-05,53.2155,216.7736,78.492,281.6166,7.8235e-05,9.58e-06,0.0,0 STARLINK-5453,1 54773U 22175R   23163.88744485  .00000958  00000-0  78235-4 0  9997,2 54773  53.2155 216.7736 0000836  78.4920 281.6166 15.08842174 28839,6917.874,95.437,540.317,539.16,0.0
54773.0,STARLINK-5453,PAYLOAD,2023-06-13 06:50:14,15.0883731,9.32e-05,53.2161,214.9903,86.323,273.7869,3.7026e-05,3.02e-06,0.0,0 STARLINK-5453,1 54773U 22175R   23164.28488972  .00000302  00000-0  37026-4 0  9994,2 54773  53.2161 214.9903 0000932  86.3230 273.7869 15.08837310 28895,6917.889,95.438,540.398,539.109,0.0
54773.0,STARLINK-5453,PAYLOAD,2023-06-13 10:01:00,15.08836568,6.98e-05,53.2169,214.3945,88.3994,271.7078,2.7195e-05,1.45e-06,0.0,0 STARLINK-5453,1 54773U 22175R   23164.41737004  .00000145  00000-0  27195-4 0  9993,2 54773  53.2169 214.3945 0000698  88.3994 271.7078 15.08836568 26758,6917.891,95.438,540.239,539.273,0.0
54773.0,STARLINK-5453,PAYLOAD,2023-06-14 03:30:15,15.08839999,8.99e-05,53.2163,211.1233,87.0595,273.05,3.644e-06,-2.3e-06,0.0,0 STARLINK-5453,1 54773U 22175R   23165.14600945 -.00000230  00000-0  36440-5 0  9997,2 54773  53.2163 211.1233 0000899  87.0595 273.0500 15.08839999 29022,6917.88,95.438,540.367,539.123,0.0
54773.0,STARLINK-5453,PAYLOAD,2023-06-14 19:24:06,15.08842301,9.16e-05,53.2166,208.1504,87.3595,272.7502,-5.666e-06,-3.78e-06,0.0,0 STARLINK-5453,1 54773U 22175R   23165.80840780 -.00000378  00000-0 -56660-5 0  9993,2 54773  53.2166 208.1504 0000916  87.3595 272.7502 15.08842301 29125,6917.873,95.437,540.372,539.105,0.0
54773.0,STARLINK-5453,PAYLOAD,2023-06-14 22:34:52,15.08832461,7.12e-05,53.2167,207.5568,85.1723,274.935,0.00011701,1.575e-05,0.0,0 STARLINK-5453,1 54773U 22175R   23165.94088979  .00001575  00000-0  11701-3 0  9995,2 54773  53.2167 207.5568 0000712  85.1723 274.9350 15.08832461 26984,6917.903,95.438,540.261,539.276,0.0
54773.0,STARLINK-5453,PAYLOAD,2023-06-15 09:42:35,15.08798304,0.0001077,53.2164,205.4747,106.8675,253.2436,0.00052413,8.054e-05,0.0,0 STARLINK-5453,1 54773U 22175R   23166.40457997  .00008054  00000-0  52413-3 0  9991,2 54773  53.2164 205.4747 0001077 106.8675 253.2436 15.08798304 27050,6918.008,95.44,540.618,539.128,0.0
54773.0,STARLINK-5453,PAYLOAD,2023-06-15 12:53:22,15.0879765,0.000113,53.2162,204.8791,103.1857,256.9262,0.00058056,8.953e-05,0.0,0 STARLINK-5453,1 54773U 22175R   23166.53706214  .00008953  00000-0  58056-3 0  9991,2 54773  53.2162 204.8791 0001130 103.1857 256.9262 15.08797650 29234,6918.01,95.44,540.657,539.093,0.0
54773.0,STARLINK-5453,PAYLOAD,2023-06-16 03:11:49,15.08839552,8.96e-05,53.2158,202.2023,90.7275,269.382,6.0249e-05,6.71e-06,0.0,0 STARLINK-5453,1 54773U 22175R   23167.13321127  .00000671  00000-0  60249-4 0  9991,2 54773  53.2158 202.2023 0000896  90.7275 269.3820 15.08839552 27168,6917.882,95.438,540.367,539.127,0.0
54773.0,STARLINK-5453,PAYLOAD,2023-06-16 09:33:21,15.08844345,8.91e-05,53.2159,201.0132,89.4442,270.6653,9.8326e-05,1.278e-05,0.0,0 STARLINK-5453,1 54773U 22175R   23167.39816716  .00001278  00000-0  98326-4 0  9993,2 54773  53.2159 201.0132 0000891  89.4442 270.6653 15.08844345 29362,6917.867,95.437,540.348,539.116,0.0
54773.0,STARLINK-5453,PAYLOAD,2023-06-16 19:05:40,15.08837967,8.61e-05,53.2159,199.2291,87.675,272.4341,8.8867e-05,1.127e-05,0.0,0 STARLINK-5453,1 54773U 22175R   23167.79561073  .00001127  00000-0  88867-4 0  9992,2 54773  53.2159 199.2291 0000861  87.6750 272.4341 15.08837967 29428,6917.887,95.438,540.347,539.156,0.0
54773.0,STARLINK-5453,PAYLOAD,2023-06-17 06:13:23,15.08834766,8.87e-05,53.2159,197.1475,87.0885,273.0208,4.6884e-05,4.58e-06,0.0,0 STARLINK-5453,1 54773U 22175R   23168.25929515  .00000458  00000-0  46884-4 0  9992,2 54773  53.2159 197.1475 0000887  87.0885 273.0208 15.08834766 27331,6917.896,95.438,540.375,539.148,0.0
54773.0,STARLINK-5453,PAYLOAD,2023-06-17 10:59:32,15.08837692,8.92e-05,53.2159,196.2554,86.9448,273.1646,4.987e-05,5.06e-06,0.0,0 STARLINK-5453,1 54773U 22175R   23168.45801359  .00000506  00000-0  49870-4 0  9991,2 54773  53.2159 196.2554 0000892  86.9448 273.1646 15.08837692 29529,6917.887,95.438,540.37,539.135,0.0
54773.0,STARLINK-5453,PAYLOAD,2023-06-17 18:56:28,15.0883572,8.95e-05,53.2159,194.7686,87.466,272.6435,2.8086e-05,1.59e-06,0.0,0 STARLINK-5453,1 54773U 22175R   23168.78921601  .00000159  00000-0  28086-4 0  9990,2 54773  53.2159 194.7686 0000895  87.4660 272.6435 15.08835720 29578,6917.893,95.438,540.378,539.139,0.0
54773.0,STARLINK-5453,PAYLOAD,2023-06-18 07:39:33,15.08836427,9.27e-05,53.2161,192.39,86.561,273.5488,-1.2445e-05,-4.86e-06,0.0,0 STARLINK-5453,1 54773U 22175R   23169.31913781 -.00000486  00000-0 -12445-4 0  9997,2 54773  53.2161 192.3900 0000927  86.5610 273.5488 15.08836427 27497,6917.891,95.438,540.398,539.115,0.0
54773.0,STARLINK-5453,PAYLOAD,2023-06-18 18:47:15,15.08838682,9.24e-05,53.2161,190.3081,85.8064,274.3033,1.6498e-05,-2.5e-07,0.0,0 STARLINK-5453,1 54773U 22175R   23169.78281573 -.00000025  00000-0  16498-4 0  9995,2 54773  53.2161 190.3081 0000924  85.8064 274.3033 15.08838682 29725,6917.884,95.438,540.389,539.11,0.0
54773.0,STARLINK-5453,PAYLOAD,2023-06-19 01:08:47,15.08837729,8.84e-05,53.2157,189.1177,86.7686,273.3407,7.1323e-05,8.48e-06,0.0,0 STARLINK-5453,1 54773U 22175R   23170.04777457  .00000848  00000-0  71323-4 0  9997,2 54773  53.2157 189.1177 0000884  86.7686 273.3407 15.08837729 29766,6917.887,95.438,540.364,539.141,0.0
54773.0,STARLINK-5453,PAYLOAD,2023-06-19 18:38:02,15.08840604,8.81e-05,53.2158,185.8468,85.5673,274.542,7.1702e-05,8.54e-06,0.0,0 STARLINK-5453,1 54773U 22175R   23170.77641327  .00000854  00000-0  71702-4 0  9991,2 54773  53.2158 185.8468 0000881  85.5673 274.5420 15.08840604 29879,6917.879,95.438,540.353,539.134,0.0
54773.0,STARLINK-5453,PAYLOAD,2023-06-20 00:59:34,15.08838376,8.84e-05,53.2158,184.6573,85.9983,274.111,8.0031e-05,9.86e-06,0.0,0 STARLINK-5453,1 54773U 22175R   23171.04137459  .00000986  00000-0  80031-4 0  9999,2 54773  53.2158 184.6573 0000884  85.9983 274.1110 15.08838376 27754,6917.885,95.438,540.362,539.139,0.0
54773.0,STARLINK-5453,PAYLOAD,2023-06-20 07:21:07,15.08840055,8.86e-05,53.2158,183.4679,85.7908,274.3185,8.8219e-05,1.117e-05,0.0,0 STARLINK-5453,1 54773U 22175R   23171.30633347  .00001117  00000-0  88219-4 0  9998,2 54773  53.2158 183.4679 0000886  85.7908 274.3185 15.08840055 29950,6917.88,95.438,540.358,539.132,0.0
54773.0,STARLINK-5453,PAYLOAD,2023-06-21 07:11:54,15.08841374,9.02e-05,53.2157,179.0074,86.1686,273.941,3.6646e-05,2.96e-06,0.0,0 STARLINK-5453,1 54773U 22175R   23172.29993383  .00000296  00000-0  36646-4 0  9990,2 54773  53.2157 179.0074 0000902  86.1686 273.9410 15.08841374 27944,6917.876,95.437,540.365,539.117,0.0
54773.0,STARLINK-5453,PAYLOAD,2023-06-22 16:35:00,15.088367,9.66e-05,53.2156,172.7628,82.4092,277.701,1.7262e-05,-1.3e-07,0.0,0 STARLINK-5453,1 54773U 22175R   23173.69097829 -.00000013  00000-0  17262-4 0  9996,2 54773  53.2156 172.7628 0000966  82.4092 277.7010 15.08836700 28157,6917.89,95.438,540.424,539.087,0.0
54773.0,STARLINK-5453,PAYLOAD,2023-06-23 22:47:20,15.08834034,9.8e-05,53.2156,167.1139,86.4921,273.6184,2.2914e-05,7.7e-07,0.0,0 STARLINK-5453,1 54773U 22175R   23174.94954297  .00000077  00000-0  22914-4 0  9995,2 54773  53.2156 167.1139 0000980  86.4921 273.6184 15.08834034 28349,6917.899,95.438,540.442,539.086,0.0
